{"type": "FeatureCollection", "features": [ {"type": "Feature", "properties": {"norad_id": 31498, "name": "FENGYUN 1C DEB", "group": "fengyun-1c-debris", "lat": 16.235159967870374, "lon": -49.56919679300221, "alt_km": 1103.6735176890297, "timestamp": "2025-12-06T22:38:43.010953+00:00", "meta": {"OBJECT_NAME": "FENGYUN 1C DEB", "OBJECT_ID": "1999-025BWM", "EPOCH": "2025-12-06T08:36:39.983040", "MEAN_MOTION": 13.76968342, "ECCENTRICITY": 0.02180019, "INCLINATION": 98.484, "RA_OF_ASC_NODE": 312.3995, "ARG_OF_PERICENTER": 162.1137, "MEAN_ANOMALY": 198.7844, "EPHEMERIS_TYPE": 0, "CLASSIFICATION_TYPE": "U", "NORAD_CAT_ID": 31498, "ELEMENT_SET_NO": 999, "REV_AT_EPOCH": 92646, "BSTAR": 0.0023072819, "MEAN_MOTION_DOT": 2.676e-05, "MEAN_MOTION_DDOT": 0}, "tle": {"line1": "1 31498U 99025BWM 25340.35879610  .00002676  00000+0  23073-2 0  9990", "line2": "2 31498  98.4840 312.3995 0218001 162.1137 198.7844 13.76968342926462"}}, "geometry": {"type": "Point", "coordinates": [-49.56919679300221, 16.235159967870374]}}, {"type": "Feature", "properties": {"norad_id": 31503, "name": "FENGYUN 1C DEB", "group": "fengyun-1c-debris", "lat": 59.89981249382872, "lon": -171.69579205073865, "alt_km": 838.4638285484743, "timestamp": "2025-12-06T22:38:43.010963+00:00", "meta": {"OBJECT_NAME": "FENGYUN 1C DEB", "OBJECT_ID": "1999-025BWS", "EPOCH": "2025-12-06T08:51:01.222560", "MEAN_MOTION": 14.22550106, "ECCENTRICITY": 0.00490449, "INCLINATION": 100.0993, "RA_OF_ASC_NODE": 205.5525, "ARG_OF_PERICENTER": 204.8314, "MEAN_ANOMALY": 155.0498, "EPHEMERIS_TYPE": 0, "CLASSIFICATION_TYPE": "U", "NORAD_CAT_ID": 31503, "ELEMENT_SET_NO": 999, "REV_AT_EPOCH": 64156, "BSTAR": 0.001905319, "MEAN_MOTION_DOT": 4.254e-05, "MEAN_MOTION_DDOT": 0}, "tle": {"line1": "1 31503U 99025BWS 25340.36876415  .00004254  00000+0  19053-2 0  9995", "line2": "2 31503 100.0993 205.5525 0049044 204.8314 155.0498 14.22550106641563"}}, "geometry": {"type": "Point", "coordinates": [-171.69579205073865, 59.89981249382872]}}, {"type": "Feature", "properties": {"norad_id": 31507, "name": "FENGYUN 1C DEB", "group": "fengyun-1c-debris", "lat": -61.56842763578436, "lon": 177.89902135730026, "alt_km": 795.6305532096139, "timestamp": "2025-12-06T22:38:43.010974+00:00", "meta": {"OBJECT_NAME": "FENGYUN 1C DEB", "OBJECT_ID": "1999-025BWW", "EPOCH": "2025-12-06T13:57:24.581664", "MEAN_MOTION": 14.5213705, "ECCENTRICITY": 0.01181197, "INCLINATION": 98.1935, "RA_OF_ASC_NODE": 12.9793, "ARG_OF_PERICENTER": 97.0047, "MEAN_ANOMALY": 53.4587, "EPHEMERIS_TYPE": 0, "CLASSIFICATION_TYPE": "U", "NORAD_CAT_ID": 31507, "ELEMENT_SET_NO": 999, "REV_AT_EPOCH": 97931, "BSTAR": 0.00083577538, "MEAN_MOTION_DOT": 3.663e-05, "MEAN_MOTION_DDOT": 0}, "tle": {"line1": "1 31507U 99025BWW 25340.58153451  .00003663  00000+0  83578-3 0  9998", "line2": "2 31507  98.1935  12.9793 0118119  97.0047  53.4587 14.52137050979311"}}, "geometry": {"type": "Point", "coordinates": [177.89902135730026, -61.56842763578436]}}, {"type": "Feature", "properties": {"norad_id": 31508, "name": "FENGYUN 1C DEB", "group": "fengyun-1c-debris", "lat": 67.30346310124351, "lon": 67.94681184726167, "alt_km": 677.3897594486516, "timestamp": "2025-12-06T22:38:43.010984+00:00", "meta": {"OBJECT_NAME": "FENGYUN 1C DEB", "OBJECT_ID": "1999-025BWX", "EPOCH": "2025-12-06T12:28:43.968576", "MEAN_MOTION": 14.62244446, "ECCENTRICITY": 0.00332175, "INCLINATION": 98.6332, "RA_OF_ASC_NODE": 88.8049, "ARG_OF_PERICENTER": 344.7452, "MEAN_ANOMALY": 15.2744, "EPHEMERIS_TYPE": 0, "CLASSIFICATION_TYPE": "U", "NORAD_CAT_ID": 31508, "ELEMENT_SET_NO": 999, "REV_AT_EPOCH": 96833, "BSTAR": 0.004912467, "MEAN_MOTION_DOT": 0.00024993, "MEAN_MOTION_DDOT": 0}, "tle": {"line1": "1 31508U 99025BWX 25340.51995334  .00024993  00000+0  49125-2 0  9994", "line2": "2 31508  98.6332  88.8049 0033217 344.7452  15.2744 14.62244446968331"}}, "geometry": {"type": "Point", "coordinates": [67.94681184726167, 67.30346310124351]}}, {"type": "Feature", "properties": {"norad_id": 31509, "name": "FENGYUN 1C DEB", "group": "fengyun-1c-debris", "lat": 76.9674453778996, "lon": 56.967419167531446, "alt_km": 1036.993223782013, "timestamp": "2025-12-06T22:38:43.010994+00:00", "meta": {"OBJECT_NAME": "FENGYUN 1C DEB", "OBJECT_ID": "1999-025BWY", "EPOCH": "2025-12-06T13:38:17.940480", "MEAN_MOTION": 13.94827956, "ECCENTRICITY": 0.02039266, "INCLINATION": 99.0225, "RA_OF_ASC_NODE": 99.9485, "ARG_OF_PERICENTER": 235.1778, "MEAN_ANOMALY": 123.0051, "EPHEMERIS_TYPE": 0, "CLASSIFICATION_TYPE": "U", "NORAD_CAT_ID": 31509, "ELEMENT_SET_NO": 999, "REV_AT_EPOCH": 93876, "BSTAR": 0.0040041188, "MEAN_MOTION_DOT": 6.349e-05, "MEAN_MOTION_DDOT": 0}, "tle": {"line1": "1 31509U 99025BWY 25340.56826320  .00006349  00000+0  40041-2 0  9991", "line2": "2 31509  99.0225  99.9485 0203926 235.1778 123.0051 13.94827956938765"}}, "geometry": {"type": "Point", "coordinates": [56.967419167531446, 76.9674453778996]}}, {"type": "Feature", "properties": {"norad_id": 31510, "name": "FENGYUN 1C DEB", "group": "fengyun-1c-debris", "lat": -44.72686701871952, "lon": -11.130137666143789, "alt_km": 794.3255258561903, "timestamp": "2025-12-06T22:38:43.011004+00:00", "meta": {"OBJECT_NAME": "FENGYUN 1C DEB", "OBJECT_ID": "1999-025BWZ", "EPOCH": "2025-12-06T06:04:31.555200", "MEAN_MOTION": 14.2453779, "ECCENTRICITY": 0.00375224, "INCLINATION": 98.5536, "RA_OF_ASC_NODE": 339.6242, "ARG_OF_PERICENTER": 350.7602, "MEAN_ANOMALY": 25.5517, "EPHEMERIS_TYPE": 0, "CLASSIFICATION_TYPE": "U", "NORAD_CAT_ID": 31510, "ELEMENT_SET_NO": 999, "REV_AT_EPOCH": 96395, "BSTAR": 0.00098453338, "MEAN_MOTION_DOT": 2.258e-05, "MEAN_MOTION_DDOT": 0}, "tle": {"line1": "1 31510U 99025BWZ 25340.25314300  .00002258  00000+0  98453-3 0  9995", "line2": "2 31510  98.5536 339.6242 0037522 350.7602  25.5517 14.24537790963958"}}, "geometry": {"type": "Point", "coordinates": [-11.130137666143789, -44.72686701871952]}}, {"type": "Feature", "properties": {"norad_id": 31511, "name": "FENGYUN 1C DEB", "group": "fengyun-1c-debris", "lat": -53.00686906280702, "lon": -42.868938417569034, "alt_km": 727.6240161880869, "timestamp": "2025-12-06T22:38:43.011014+00:00", "meta": {"OBJECT_NAME": "FENGYUN 1C DEB", "OBJECT_ID": "1999-025BXA", "EPOCH": "2025-12-05T22:00:15.181632", "MEAN_MOTION": 14.27991614, "ECCENTRICITY": 0.01096951, "INCLINATION": 99.0676, "RA_OF_ASC_NODE": 148.3037, "ARG_OF_PERICENTER": 246.1309, "MEAN_ANOMALY": 112.8345, "EPHEMERIS_TYPE": 0, "CLASSIFICATION_TYPE": "U", "NORAD_CAT_ID": 31511, "ELEMENT_SET_NO": 999, "REV_AT_EPOCH": 95703, "BSTAR": 0.002130032, "MEAN_MOTION_DOT": 5.59e-05, "MEAN_MOTION_DDOT": 0}, "tle": {"line1": "1 31511U 99025BXA 25339.91684238  .00005590  00000+0  21300-2 0  9995", "line2": "2 31511  99.0676 148.3037 0109695 246.1309 112.8345 14.27991614957033"}}, "geometry": {"type": "Point", "coordinates": [-42.868938417569034, -53.00686906280702]}}, {"type": "Feature", "properties": {"norad_id": 31512, "name": "FENGYUN 1C DEB", "group": "fengyun-1c-debris", "lat": 35.287846500620354, "lon": 62.422679907474915, "alt_km": 647.1343712572098, "timestamp": "2025-12-06T22:38:43.011024+00:00", "meta": {"OBJECT_NAME": "FENGYUN 1C DEB", "OBJECT_ID": "1999-025BXB", "EPOCH": "2025-12-05T11:51:16.060032", "MEAN_MOTION": 14.43784162, "ECCENTRICITY": 0.01439454, "INCLINATION": 98.8042, "RA_OF_ASC_NODE": 234.6261, "ARG_OF_PERICENTER": 168.6219, "MEAN_ANOMALY": 5.8164, "EPHEMERIS_TYPE": 0, "CLASSIFICATION_TYPE": "U", "NORAD_CAT_ID": 31512, "ELEMENT_SET_NO": 999, "REV_AT_EPOCH": 65397, "BSTAR": 0.00083958761, "MEAN_MOTION_DOT": 3.189e-05, "MEAN_MOTION_DDOT": 0}, "tle": {"line1": "1 31512U 99025BXB 25339.49393588  .00003189  00000+0  83959-3 0  9995", "line2": "2 31512  98.8042 234.6261 0143945 168.6219   5.8164 14.43784162653972"}}, "geometry": {"type": "Point", "coordinates": [62.422679907474915, 35.287846500620354]}}, {"type": "Feature", "properties": {"norad_id": 31513, "name": "FENGYUN 1C DEB", "group": "fengyun-1c-debris", "lat": -48.523769275325705, "lon": -112.62487945486342, "alt_km": 789.3615373484499, "timestamp": "2025-12-06T22:38:43.011034+00:00", "meta": {"OBJECT_NAME": "FENGYUN 1C DEB", "OBJECT_ID": "1999-025BXC", "EPOCH": "2025-11-25T02:15:23.832576", "MEAN_MOTION": 14.32315683, "ECCENTRICITY": 0.00282412, "INCLINATION": 98.8622, "RA_OF_ASC_NODE": 65.435, "ARG_OF_PERICENTER": 176.3464, "MEAN_ANOMALY": 183.7931, "EPHEMERIS_TYPE": 0, "CLASSIFICATION_TYPE": "U", "NORAD_CAT_ID": 31513, "ELEMENT_SET_NO": 999, "REV_AT_EPOCH": 72616, "BSTAR": 0.0023967664, "MEAN_MOTION_DOT": 6.459e-05, "MEAN_MOTION_DDOT": 0}, "tle": {"line1": "1 31513U 99025BXC 25329.09402584  .00006459  00000+0  23968-2 0  9994", "line2": "2 31513  98.8622  65.4350 0028241 176.3464 183.7931 14.32315683726161"}}, "geometry": {"type": "Point", "coordinates": [-112.62487945486342, -48.523769275325705]}}, {"type": "Feature", "properties": {"norad_id": 31514, "name": "FENGYUN 1C DEB", "group": "fengyun-1c-debris", "lat": 24.0538509452402, "lon": -122.75133756671369, "alt_km": 832.5131884191505, "timestamp": "2025-12-06T22:38:43.011044+00:00", "meta": {"OBJECT_NAME": "FENGYUN 1C DEB", "OBJECT_ID": "1999-025BXD", "EPOCH": "2025-12-06T15:46:13.233504", "MEAN_MOTION": 14.20926247, "ECCENTRICITY": 0.00522229, "INCLINATION": 99.2471, "RA_OF_ASC_NODE": 241.1191, "ARG_OF_PERICENTER": 132.5364, "MEAN_ANOMALY": 228.0239, "EPHEMERIS_TYPE": 0, "CLASSIFICATION_TYPE": "U", "NORAD_CAT_ID": 31514, "ELEMENT_SET_NO": 999, "REV_AT_EPOCH": 69238, "BSTAR": 0.0026683713, "MEAN_MOTION_DOT": 5.813e-05, "MEAN_MOTION_DDOT": 0}, "tle": {"line1": "1 31514U 99025BXD 25340.65709761  .00005813  00000+0  26684-2 0  9998", "line2": "2 31514  99.2471 241.1191 0052222 132.5364 228.0239 14.20926247692385"}}, "geometry": {"type": "Point", "coordinates": [-122.75133756671369, 24.0538509452402]}}]}